PROBA-1                 
1 26958U 01049B   26178.29218647  .00002623  00000+0  17102-3 0  9993
2 26958  97.9602 187.1770 0056523  88.7879 271.9823 15.07540088345141
CUTE-1 (CO-55)          
1 27844U 03031E   26178.29336883  .00000290  00000+0  14447-3 0  9991
2 27844  98.6736 186.7252 0010153 149.6738 210.5031 14.24341593193118
CUBESAT XI-IV (CO-57)   
1 27848U 03031J   26177.93548419  .00000243  00000+0  12580-3 0  9999
2 27848  98.6768 186.0767 0009653 168.4758 191.6643 14.23625736192766
APRIZESAT 4             
1 35684U 09041D   26178.16946233  .00000645  00000+0  83570-4 0  9999
2 35684  98.1410 253.6888 0041947 289.8347  69.8347 14.83891448912848
APRIZESAT 3             
1 35686U 09041F   26177.99634245  .00000988  00000+0  89999-4 0  9999
2 35686  98.2075 331.6908 0062492  35.7192 324.8184 14.96270364917842
PROBA-2                 
1 36037U 09059B   26178.21292127  .00000206  00000+0  58536-4 0  9990
2 36037  98.2451   1.4267 0012017 247.6899 112.3024 14.54866514882988
APRIZESAT 5             
1 37792U 11044E   26178.27612414  .00001066  00000+0  14184-3 0  9992
2 37792  98.2452 111.6025 0051514 331.7201  28.1216 14.81096411800282
APRIZESAT 6             
1 37793U 11044F   26178.32084119  .00000817  00000+0  12220-3 0  9996
2 37793  98.2358  89.0271 0044270  54.6012  68.6385 14.76930832798641
PROBA-V                 
1 39159U 13021A   26177.88872988  .00000090  00000+0  57685-4 0  9998
2 39159  98.3589 156.0166 0005391 101.2016 258.9770 14.23599181682495
APRIZESAT 7             
1 39416U 13066A   26177.88128964  .00001252  00000+0  12903-3 0  9995
2 39416  97.7711 130.9618 0035843 176.7007 183.4455 14.91582791682672
APRIZESAT 8             
1 39425U 13066K   26178.29785393  .00000868  00000+0  99882-4 0  9990
2 39425  97.8224 125.6250 0044389 252.1285 107.5087 14.87669656681170
BUGSAT-1 (TITA)         
1 40014U 14033E   26178.26941336  .00008302  00000+0  43525-3 0  9992
2 40014  98.0434 271.4077 0028742 144.6796 215.6346 15.15697915657360
SAUDISAT 4              
1 40016U 14033G   26178.19561225  .00000608  00000+0  86718-4 0  9994
2 40016  97.7593 323.9845 0045702  42.2914 318.1808 14.79556668647550
APRIZESAT 9             
1 40018U 14033J   26178.25297062  .00000768  00000+0  11998-3 0  9992
2 40018  97.9071 311.2061 0066483 166.7855 193.5115 14.74228438645044
APRIZESAT 10            
1 40019U 14033K   26178.26272823  .00000522  00000+0  89757-4 0  9999
2 40019  97.9660 304.9981 0077577 241.1104 118.2304 14.70891799643730
TECHDEMOSAT-1 (TDS-1)   
1 40076U 14037H   26177.94416406  .00008509  00000+0  48022-3 0  9999
2 40076  98.3810 171.1246 0005124 222.5193 137.5639 15.13430497649703
TECHNOSAT               
1 42829U 17042E   26178.22239608  .00003055  00000+0  21851-3 0  9997
2 42829  97.4292 335.4994 0019250  63.0980 297.2212 15.05019291488211
FLYING LAPTOP           
1 42831U 17042G   26178.25063512  .00003025  00000+0  23924-3 0  9992
2 42831  97.4728 333.3983 0019978  89.6560 270.6954 15.01207479487960
HAWK-A                  
1 43765U 18099H   26178.12684272  .00006593  00000+0  26498-3 0  9992
2 43765  97.3913 230.2333 0033214 249.0498 110.7184 15.24754379414619
HAWK-B                  
1 43794U 18099AN  26178.09453876  .00006368  00000+0  27107-3 0  9992
2 43794  97.3963 229.5956 0030236 268.1786  91.5987 15.22926951414545
HAWK-C                  
1 43799U 18099AT  26178.14631604  .00008131  00000+0  29172-3 0  9994
2 43799  97.3889 231.2138 0038833 248.9438 110.7647 15.28237287415439
SALSAT                  
1 46495U 20068K   26177.95657953  .00008212  00000+0  28601-3 0  9998
2 46495  97.8848 181.6168 0007823 266.2984  93.7361 15.29932421316852
HAWK-2C                 
1 47502U 21006CT  26178.12803507  .00007028  00000+0  21057-3 0  9991
2 47502  97.2278 222.2397 0007747 153.0932 207.0714 15.34780004301029
HAWK-2A                 
1 47505U 21006CW  26178.13043148  .00006958  00000+0  20843-3 0  9995
2 47505  97.2320 222.9257 0007211 155.8858 204.2725 15.34794338301021
HAWK-2B                 
1 47508U 21006CZ  26178.06016086  .00008040  00000+0  23963-3 0  9991
2 47508  97.2187 221.1725 0007787 154.9386 205.2237 15.34897058301011
HAWK-3B                 
1 48931U 21059BE  26178.07623029  .00046311  00000+0  37934-3 0  9998
2 48931  97.6649  15.7252 0003114 279.0787  81.0122 15.70388207279406
HAWK-3C                 
1 48948U 21059BX  26178.13962447  .00044319  00000+0  36302-3 0  9997
2 48948  97.6770  21.4981 0003374 279.8145  80.2736 15.70396104279414
HAWK-3A                 
1 48957U 21059CG  26178.07576602  .00044996  00000+0  36877-3 0  9992
2 48957  97.6713  18.6249 0003308 282.2811  77.8080 15.70380541279402
HAWK-5C                 
1 52754U 22057Y   26178.16964653  .00020783  00000+0  34996-3 0  9996
2 52754  97.6604 338.4830 0004277  51.0341 309.1291 15.51733503227896
HAWK-5B                 
1 52756U 22057AA  26178.23396745  .00020451  00000+0  34430-3 0  9992
2 52756  97.6611 336.9015 0004911  42.6620 317.5012 15.51739734227903
