OBJECT_NAME,OBJECT_ID,EPOCH,MEAN_MOTION,ECCENTRICITY,INCLINATION,RA_OF_ASC_NODE,ARG_OF_PERICENTER,MEAN_ANOMALY,EPHEMERIS_TYPE,CLASSIFICATION_TYPE,NORAD_CAT_ID,ELEMENT_SET_NO,REV_AT_EPOCH,BSTAR,MEAN_MOTION_DOT,MEAN_MOTION_DDOT
PROBA-1,2001-049B,2026-06-27T07:00:44.911008,15.07540088,.00565231,97.9602,187.1770,88.7879,271.9823,0,U,26958,999,34514,.1710225E-3,.2623E-4,0
CUTE-1 (CO-55),2003-031E,2026-06-27T07:02:27.066912,14.24341593,.00101531,98.6736,186.7252,149.6738,210.5031,0,U,27844,999,19311,.14447339E-3,.29E-5,0
CUBESAT XI-IV (CO-57),2003-031J,2026-06-26T22:27:05.834016,14.23625736,.0009653,98.6768,186.0767,168.4758,191.6643,0,U,27848,999,19276,.1258E-3,.243E-5,0
APRIZESAT 4,2009-041D,2026-06-27T04:04:01.545312,14.83891448,.00419479,98.1410,253.6888,289.8347,69.8347,0,U,35684,999,91284,.83569718E-4,.645E-5,0
APRIZESAT 3,2009-041F,2026-06-26T23:54:43.987680,14.96270364,.00624925,98.2075,331.6908,35.7192,324.8184,0,U,35686,999,91784,.89999331E-4,.988E-5,0
PROBA-2,2009-059B,2026-06-27T05:06:36.397728,14.54866514,.00120174,98.2451,1.4267,247.6899,112.3024,0,U,36037,999,88298,.58536285E-4,.206E-5,0
APRIZESAT 5,2011-044E,2026-06-27T06:37:37.125696,14.81096411,.00515147,98.2452,111.6025,331.7201,28.1216,0,U,37792,999,80028,.1418447E-3,.1066E-4,0
APRIZESAT 6,2011-044F,2026-06-27T07:42:00.678816,14.76930832,.00442702,98.2358,89.0271,54.6012,68.6385,0,U,37793,999,79864,.12219907E-3,.817E-5,0
PROBA-V,2013-021A,2026-06-26T21:19:46.261632,14.23599181,.00053918,98.3589,156.0166,101.2016,258.9770,0,U,39159,999,68249,.57684876E-4,.9E-6,0
APRIZESAT 7,2013-066A,2026-06-26T21:09:03.424896,14.91582791,.0035843,97.7711,130.9618,176.7007,183.4455,0,U,39416,999,68267,.1290325E-3,.1252E-4,0
APRIZESAT 8,2013-066K,2026-06-27T07:08:54.579552,14.87669656,.00443893,97.8224,125.6250,252.1285,107.5087,0,U,39425,999,68117,.99882011E-4,.868E-5,0
BUGSAT-1 (TITA),2014-033E,2026-06-27T06:27:57.314304,15.15697915,.00287424,98.0434,271.4077,144.6796,215.6346,0,U,40014,999,65736,.43525332E-3,.8302E-4,0
SAUDISAT 4,2014-033G,2026-06-27T04:41:40.898400,14.79556668,.00457022,97.7593,323.9845,42.2914,318.1808,0,U,40016,999,64755,.86718089E-4,.608E-5,0
APRIZESAT 9,2014-033J,2026-06-27T06:04:16.661568,14.74228438,.00664834,97.9071,311.2061,166.7855,193.5115,0,U,40018,999,64504,.11998232E-3,.768E-5,0
APRIZESAT 10,2014-033K,2026-06-27T06:18:19.719072,14.70891799,.00775772,97.9660,304.9981,241.1104,118.2304,0,U,40019,999,64373,.8975698E-4,.522E-5,0
TECHDEMOSAT-1 (TDS-1),2014-037H,2026-06-26T22:39:35.774784,15.13430497,.0005124,98.3810,171.1246,222.5193,137.5639,0,U,40076,999,64970,.48022E-3,.8509E-4,0
TECHNOSAT,2017-042E,2026-06-27T05:20:15.021312,15.05019291,.00192501,97.4292,335.4994,63.0980,297.2212,0,U,42829,999,48821,.21850752E-3,.3055E-4,0
FLYING LAPTOP,2017-042G,2026-06-27T06:00:54.874368,15.01207479,.00199782,97.4728,333.3983,89.6560,270.6954,0,U,42831,999,48796,.23923815E-3,.3025E-4,0
HAWK-A,2018-099H,2026-06-27T03:02:39.211008,15.24754379,.00332143,97.3913,230.2333,249.0498,110.7184,0,U,43765,999,41461,.2649839E-3,.6593E-4,0
HAWK-B,2018-099AN,2026-06-27T02:16:08.148864,15.22926951,.00302366,97.3963,229.5956,268.1786,91.5987,0,U,43794,999,41454,.27106823E-3,.6368E-4,0
HAWK-C,2018-099AT,2026-06-27T03:30:41.705856,15.28237287,.00388337,97.3889,231.2138,248.9438,110.7647,0,U,43799,999,41543,.29172047E-3,.8131E-4,0
SALSAT,2020-068K,2026-06-26T22:57:28.471392,15.29932421,.0007823,97.8848,181.6168,266.2984,93.7361,0,U,46495,999,31685,.28601E-3,.8212E-4,0
HAWK-2C,2021-006CT,2026-06-27T03:04:22.230048,15.34780004,.0007747,97.2278,222.2397,153.0932,207.0714,0,U,47502,999,30102,.2105656E-3,.7028E-4,0
HAWK-2A,2021-006CW,2026-06-27T03:07:49.279872,15.34794338,.00072115,97.2320,222.9257,155.8858,204.2725,0,U,47505,999,30102,.20842926E-3,.6958E-4,0
HAWK-2B,2021-006CZ,2026-06-27T01:26:37.898304,15.34897058,.00077877,97.2187,221.1725,154.9386,205.2237,0,U,47508,999,30101,.23963376E-3,.804E-4,0
HAWK-3B,2021-059BE,2026-06-27T01:49:46.297056,15.70388207,.00031149,97.6649,15.7252,279.0787,81.0122,0,U,48931,999,27940,.37934289E-3,.46311E-3,0
HAWK-3C,2021-059BX,2026-06-27T03:21:03.554208,15.70396104,.0003374,97.6770,21.4981,279.8145,80.2736,0,U,48948,999,27941,.36302298E-3,.44319E-3,0
HAWK-3A,2021-059CG,2026-06-27T01:49:06.184128,15.70380541,.00033084,97.6713,18.6249,282.2811,77.8080,0,U,48957,999,27940,.36877038E-3,.44996E-3,0
HAWK-5C,2022-057Y,2026-06-27T04:04:17.460192,15.51733503,.00042774,97.6604,338.4830,51.0341,309.1291,0,U,52754,999,22789,.34995644E-3,.20783E-3,0
HAWK-5B,2022-057AA,2026-06-27T05:36:54.787680,15.51739734,.00049116,97.6611,336.9015,42.6620,317.5012,0,U,52756,999,22790,.34430222E-3,.20451E-3,0
